0 ADEOS
1 24277U 96046A   13282.44125881  .00000124  00000-0  66437-4 0  3380
2 24277 098.5650 222.8357 0000717 027.3303 110.6260 14.28925393893854
0 ADEOS
1 24277U 96046A   13283.49082844  .00000120  00000-0  64639-4 0  3396
2 24277 098.5652 223.8667 0000679 026.6527 107.3461 14.28925699894001
0 ADEOS
1 24277U 96046A   13285.99629947  .00000107  00000-0  59559-4 0  3417
2 24277 098.5658 226.3277 0000540 025.2243 029.8959 14.28926494894362
0 ADEOS
1 24277U 96046A   13287.04660890  .00000127  00000-0  67532-4 0  3420
2 24277 098.5661 227.3593 0000509 028.6021 026.3695 14.28926713894514
0 ADEOS
1 24277U 96046A   13288.45733868  .00000175  00000-0  86280-4 0  3437
2 24277 098.5664 228.7449 0000402 024.0077 083.8094 14.28927479894718
0 ADEOS
1 24277U 96046A   13289.84867189  .00000176  00000-0  86740-4 0  3448
2 24277 098.5667 230.1117 0000311 022.6697 038.2768 14.28928271894916
0 ADEOS
1 24277U 96046A   13291.46831892  .00000179  00000-0  87936-4 0  3453
2 24277 098.5669 231.7029 0000200 013.5169 094.3707 14.28928891895147
0 ADEOS
1 24277U 96046A   13292.79447946  .00000187  00000-0  91395-4 0  3467
2 24277 098.5670 233.0059 0000110 011.7409 074.2154 14.28929452895332
0 ADEOS
1 24277U 96046A   13293.84269914  .00000216  00000-0  10256-3 0  3471
2 24277 098.5671 234.0358 0000057 022.4703 052.6054 14.28929815895480
0 ADEOS
1 24277U 96046A   13295.46530897  .00000210  00000-0  10026-3 0  3482
2 24277 098.5672 235.6301 0000051 159.0393 338.2187 14.28930946895715
